[
    {
        "Altitude(m)": 624792.7798386636,
        "Argument of Periapsis(deg)": 0.0,
        "Eccentricity": 0.0,
        "Inclination(deg)": 60.0,
        "Latitude(deg)": -59.14711111745567,
        "Longitude(deg)": -5.973430063456479,
        "Mean Anomaly(deg)": -98.18180000000002,
        "RAAN(deg)": 200.0,
        "Satellite Name": "Test1 896",
        "Satellite Number": 896,
        "Semi-Major Axis(m)": 6980739.136638005,
        "Time(s)": 0
    },
    {
        "Altitude(m)": 624842.1712006633,
        "Argument of Periapsis(deg)": 0.00010418945913296404,
        "Eccentricity": 0.0,
        "Inclination(deg)": 60.0,
        "Latitude(deg)": -59.28919272711341,
        "Longitude(deg)": -4.843924304515116,
        "Mean Anomaly(deg)": -97.56169385453816,
        "RAAN(deg)": 199.99957995086027,
        "Satellite Name": "Test1 896",
        "Satellite Number": 896,
        "Semi-Major Axis(m)": 6980739.136638005,
        "Time(s)": 10
    }
]